{
    "links": {
        "self": "http://www.neowsapp.com/rest/v1/neo/3752516?api_key=iIulBulltgU6a56xZRHN4H3l9WmuAYTsLGpBGhQ2"
    },
    "id": "3752516",
    "neo_reference_id": "3752516",
    "name": "(2016 HT6)",
    "designation": "2016 HT6",
    "nasa_jpl_url": "http://ssd.jpl.nasa.gov/sbdb.cgi?sstr=3752516",
    "absolute_magnitude_h": 25.9,
    "estimated_diameter": {
        "kilometers": {
            "estimated_diameter_min": 0.0175612318,
            "estimated_diameter_max": 0.0392681082
        },
        "meters": {
            "estimated_diameter_min": 17.561231848,
            "estimated_diameter_max": 39.2681081809
        },
        "miles": {
            "estimated_diameter_min": 0.0109120402,
            "estimated_diameter_max": 0.0244000636
        },
        "feet": {
            "estimated_diameter_min": 57.6155918963,
            "estimated_diameter_max": 128.8323800441
        }
    },
    "is_potentially_hazardous_asteroid": false,
    "close_approach_data": [
        {
            "close_approach_date": "1933-09-26",
            "close_approach_date_full": "1933-Sep-26 22:59",
            "epoch_date_close_approach": -1144371660000,
            "relative_velocity": {
                "kilometers_per_second": "25.2018081732",
                "kilometers_per_hour": "90726.5094234581",
                "miles_per_hour": "56373.9247025926"
            },
            "miss_distance": {
                "astronomical": "0.482489086",
                "lunar": "187.688254454",
                "kilometers": "72179339.56384682",
                "miles": "44850161.875333316"
            },
            "orbiting_body": "Earth"
        },
        {
            "close_approach_date": "1986-10-22",
            "close_approach_date_full": "1986-Oct-22 08:34",
            "epoch_date_close_approach": 530354040000,
            "relative_velocity": {
                "kilometers_per_second": "10.5050365654",
                "kilometers_per_hour": "37818.1316355228",
                "miles_per_hour": "23498.7162931947"
            },
            "miss_distance": {
                "astronomical": "0.0185216429",
                "lunar": "7.2049190881",
                "kilometers": "2770798.326740623",
                "miles": "1721694.2442136774"
            },
            "orbiting_body": "Earth"
        },
        {
            "close_approach_date": "1991-09-14",
            "close_approach_date_full": "1991-Sep-14 10:09",
            "epoch_date_close_approach": 684842940000,
            "relative_velocity": {
                "kilometers_per_second": "8.0323662198",
                "kilometers_per_hour": "28916.518391214",
                "miles_per_hour": "17967.5999970296"
            },
            "miss_distance": {
                "astronomical": "0.4056520847",
                "lunar": "157.7986609483",
                "kilometers": "60684687.832179589",
                "miles": "37707716.4888687682"
            },
            "orbiting_body": "Earth"
        },
        {
            "close_approach_date": "2016-04-15",
            "close_approach_date_full": "2016-Apr-15 14:41",
            "epoch_date_close_approach": 1460731260000,
            "relative_velocity": {
                "kilometers_per_second": "10.7458506153",
                "kilometers_per_hour": "38685.0622151495",
                "miles_per_hour": "24037.3932414077"
            },
            "miss_distance": {
                "astronomical": "0.0133623741",
                "lunar": "5.1979635249",
                "kilometers": "1998982.703503167",
                "miles": "1242110.2545390246"
            },
            "orbiting_body": "Earth"
        },
        {
            "close_approach_date": "2019-10-06",
            "close_approach_date_full": "2019-Oct-06 04:12",
            "epoch_date_close_approach": 1570335120000,
            "relative_velocity": {
                "kilometers_per_second": "19.9446156183",
                "kilometers_per_hour": "71800.6162258537",
                "miles_per_hour": "44614.1106765589"
            },
            "miss_distance": {
                "astronomical": "0.306977907",
                "lunar": "119.414405823",
                "kilometers": "45923241.02425809",
                "miles": "28535378.769378042"
            },
            "orbiting_body": "Earth"
        }
    ],
    "orbital_data": {
        "orbit_id": "5",
        "orbit_determination_date": "2019-07-17 06:11:11",
        "first_observation_date": "2016-04-29",
        "last_observation_date": "2016-05-03",
        "data_arc_in_days": 4,
        "observations_used": 25,
        "orbit_uncertainty": "8",
        "minimum_orbit_intersection": ".0126452",
        "jupiter_tisserand_invariant": "5.323",
        "epoch_osculation": "2457510.5",
        "eccentricity": ".3763815036143784",
        "semi_major_axis": "1.170505309632464",
        "inclination": "3.508380673523642",
        "ascending_node_longitude": "194.393691280837",
        "orbital_period": "462.5498122252711",
        "perihelion_distance": ".7299487612043839",
        "perihelion_argument": "282.2407078301941",
        "aphelion_distance": "1.611061858060545",
        "perihelion_time": "2457433.086575886856",
        "mean_anomaly": "60.25044642577685",
        "mean_motion": ".7782945544136827",
        "equinox": "J2000",
        "orbit_class": {
            "orbit_class_type": "APO",
            "orbit_class_description": "Near-Earth asteroid orbits which cross the Earth’s orbit similar to that of 1862 Apollo",
            "orbit_class_range": "a (semi-major axis) > 1.0 AU; q (perihelion) < 1.017 AU"
        }
    },
    "is_sentry_object": false
}